STARLINK-36472          
1 67346U 26003N   26036.45554333  .00088707  00000+0  14983-2 0  9992
2 67346  43.0004  50.0153 0002193 254.1486 105.9132 15.50624240  3876
STARLINK-36420          
1 67347U 26003P   26036.45485748  .00136728  00000+0  22911-2 0  9993
2 67347  42.9998  50.0095 0002107 247.0182 113.0456 15.50637333  3888
STARLINK-36467          
1 67348U 26003Q   26036.39079171  .00157071  00000+0  26252-2 0  9992
2 67348  42.9984  50.3895 0001432 275.1798  84.8899 15.50628064  3876
STARLINK-36457          
1 67349U 26003R   26036.39010569  .00102612  00000+0  17297-2 0  9999
2 67349  42.9945  50.3806 0000953 273.6374  86.4377 15.50617293  3877
STARLINK-36475          
1 67350U 26003S   26036.38976124  .00146873  00000+0  24578-2 0  9995
2 67350  42.9992  50.3795 0001728 247.9901 112.0776 15.50634697  3875
STARLINK-36478          
1 67351U 26003T   26036.38942310  .00102568  00000+0  17302-2 0  9996
2 67351  42.9985  50.3767 0001481 269.8710  90.1981 15.50597515  3875
STARLINK-36479          
1 67352U 26003U   26036.38907703  .00102259  00000+0  17241-2 0  9993
2 67352  42.9942  50.3714 0000998 301.5959  58.4803 15.50613644  3874
STARLINK-36474          
1 67353U 26003V   26036.45321176  .00162915  00000+0  27220-2 0  9999
2 67353  42.9980  49.9940 0003180 298.7156  61.3384 15.50611932  3880
STARLINK-36448          
1 67354U 26003W   26036.45211978  .00117796  00000+0  19787-2 0  9994
2 67354  42.9981  49.9884 0001198 252.8641 107.2088 15.50649438  3889
STARLINK-36477          
1 67355U 26003X   26036.51723012  .00077242  00000+0  13105-2 0  9998
2 67355  42.9993  49.6166 0000652 295.7640  64.3153 15.50557411  3898
STARLINK-36429          
1 67356U 26003Y   26036.38804595  .00188662  00000+0  31468-2 0  9991
2 67356  42.9994  50.3666 0001229 260.3890  99.6831 15.50561038  3872
STARLINK-36456          
1 67357U 26003Z   26036.45177412  .00127512  00000+0  21406-2 0  9999
2 67357  42.9990  49.9835 0001358 251.3541 108.7172 15.50625486  3886
