CCSDS_OMM_VERS = 2.0
CREATION_DATE  = 
ORIGINATOR     = 

OBJECT_NAME    = STARLINK-36472
OBJECT_ID      = 2026-003N
CENTER_NAME    = EARTH
REF_FRAME      = TEME
TIME_SYSTEM    = UTC
MEAN_ELEMENT_THEORY = SGP/SGP4

EPOCH          = 2026-02-05T10:55:58.943712
MEAN_MOTION    = 15.50624240
ECCENTRICITY   = .00021933
INCLINATION    = 43.0004
RA_OF_ASC_NODE = 50.0153
ARG_OF_PERICENTER = 254.1486
MEAN_ANOMALY   = 105.9132

EPHEMERIS_TYPE = 0
CLASSIFICATION_TYPE = U
NORAD_CAT_ID   = 67346
ELEMENT_SET_NO = 999
REV_AT_EPOCH   = 387
BSTAR          = .14983496E-2
MEAN_MOTION_DOT = .88707E-3
MEAN_MOTION_DDOT = 0

CCSDS_OMM_VERS = 2.0
CREATION_DATE  = 
ORIGINATOR     = 

OBJECT_NAME    = STARLINK-36420
OBJECT_ID      = 2026-003P
CENTER_NAME    = EARTH
REF_FRAME      = TEME
TIME_SYSTEM    = UTC
MEAN_ELEMENT_THEORY = SGP/SGP4

EPOCH          = 2026-02-05T10:54:59.686272
MEAN_MOTION    = 15.50637333
ECCENTRICITY   = .0002107
INCLINATION    = 42.9998
RA_OF_ASC_NODE = 50.0095
ARG_OF_PERICENTER = 247.0182
MEAN_ANOMALY   = 113.0456

EPHEMERIS_TYPE = 0
CLASSIFICATION_TYPE = U
NORAD_CAT_ID   = 67347
ELEMENT_SET_NO = 999
REV_AT_EPOCH   = 388
BSTAR          = .22911485E-2
MEAN_MOTION_DOT = .136728E-2
MEAN_MOTION_DDOT = 0

CCSDS_OMM_VERS = 2.0
CREATION_DATE  = 
ORIGINATOR     = 

OBJECT_NAME    = STARLINK-36467
OBJECT_ID      = 2026-003Q
CENTER_NAME    = EARTH
REF_FRAME      = TEME
TIME_SYSTEM    = UTC
MEAN_ELEMENT_THEORY = SGP/SGP4

EPOCH          = 2026-02-05T09:22:44.403744
MEAN_MOTION    = 15.50628064
ECCENTRICITY   = .00014327
INCLINATION    = 42.9984
RA_OF_ASC_NODE = 50.3895
ARG_OF_PERICENTER = 275.1798
MEAN_ANOMALY   = 84.8899

EPHEMERIS_TYPE = 0
CLASSIFICATION_TYPE = U
NORAD_CAT_ID   = 67348
ELEMENT_SET_NO = 999
REV_AT_EPOCH   = 387
BSTAR          = .26252252E-2
MEAN_MOTION_DOT = .157071E-2
MEAN_MOTION_DDOT = 0

CCSDS_OMM_VERS = 2.0
CREATION_DATE  = 
ORIGINATOR     = 

OBJECT_NAME    = STARLINK-36457
OBJECT_ID      = 2026-003R
CENTER_NAME    = EARTH
REF_FRAME      = TEME
TIME_SYSTEM    = UTC
MEAN_ELEMENT_THEORY = SGP/SGP4

EPOCH          = 2026-02-05T09:21:45.131616
MEAN_MOTION    = 15.50617293
ECCENTRICITY   = .00009531
INCLINATION    = 42.9945
RA_OF_ASC_NODE = 50.3806
ARG_OF_PERICENTER = 273.6374
MEAN_ANOMALY   = 86.4377

EPHEMERIS_TYPE = 0
CLASSIFICATION_TYPE = U
NORAD_CAT_ID   = 67349
ELEMENT_SET_NO = 999
REV_AT_EPOCH   = 387
BSTAR          = .17297102E-2
MEAN_MOTION_DOT = .102612E-2
MEAN_MOTION_DDOT = 0

CCSDS_OMM_VERS = 2.0
CREATION_DATE  = 
ORIGINATOR     = 

OBJECT_NAME    = STARLINK-36475
OBJECT_ID      = 2026-003S
CENTER_NAME    = EARTH
REF_FRAME      = TEME
TIME_SYSTEM    = UTC
MEAN_ELEMENT_THEORY = SGP/SGP4

EPOCH          = 2026-02-05T09:21:15.371136
MEAN_MOTION    = 15.50634697
ECCENTRICITY   = .00017281
INCLINATION    = 42.9992
RA_OF_ASC_NODE = 50.3795
ARG_OF_PERICENTER = 247.9901
MEAN_ANOMALY   = 112.0776

EPHEMERIS_TYPE = 0
CLASSIFICATION_TYPE = U
NORAD_CAT_ID   = 67350
ELEMENT_SET_NO = 999
REV_AT_EPOCH   = 387
BSTAR          = .24577688E-2
MEAN_MOTION_DOT = .146873E-2
MEAN_MOTION_DDOT = 0

CCSDS_OMM_VERS = 2.0
CREATION_DATE  = 
ORIGINATOR     = 

OBJECT_NAME    = STARLINK-36478
OBJECT_ID      = 2026-003T
CENTER_NAME    = EARTH
REF_FRAME      = TEME
TIME_SYSTEM    = UTC
MEAN_ELEMENT_THEORY = SGP/SGP4

EPOCH          = 2026-02-05T09:20:46.155840
MEAN_MOTION    = 15.50597515
ECCENTRICITY   = .00014816
INCLINATION    = 42.9985
RA_OF_ASC_NODE = 50.3767
ARG_OF_PERICENTER = 269.8710
MEAN_ANOMALY   = 90.1981

EPHEMERIS_TYPE = 0
CLASSIFICATION_TYPE = U
NORAD_CAT_ID   = 67351
ELEMENT_SET_NO = 999
REV_AT_EPOCH   = 387
BSTAR          = .17301846E-2
MEAN_MOTION_DOT = .102568E-2
MEAN_MOTION_DDOT = 0

CCSDS_OMM_VERS = 2.0
CREATION_DATE  = 
ORIGINATOR     = 

OBJECT_NAME    = STARLINK-36479
OBJECT_ID      = 2026-003U
CENTER_NAME    = EARTH
REF_FRAME      = TEME
TIME_SYSTEM    = UTC
MEAN_ELEMENT_THEORY = SGP/SGP4

EPOCH          = 2026-02-05T09:20:16.255392
MEAN_MOTION    = 15.50613644
ECCENTRICITY   = .00009984
INCLINATION    = 42.9942
RA_OF_ASC_NODE = 50.3714
ARG_OF_PERICENTER = 301.5959
MEAN_ANOMALY   = 58.4803

EPHEMERIS_TYPE = 0
CLASSIFICATION_TYPE = U
NORAD_CAT_ID   = 67352
ELEMENT_SET_NO = 999
REV_AT_EPOCH   = 387
BSTAR          = .17240803E-2
MEAN_MOTION_DOT = .102259E-2
MEAN_MOTION_DDOT = 0

CCSDS_OMM_VERS = 2.0
CREATION_DATE  = 
ORIGINATOR     = 

OBJECT_NAME    = STARLINK-36474
OBJECT_ID      = 2026-003V
CENTER_NAME    = EARTH
REF_FRAME      = TEME
TIME_SYSTEM    = UTC
MEAN_ELEMENT_THEORY = SGP/SGP4

EPOCH          = 2026-02-05T10:52:37.496064
MEAN_MOTION    = 15.50611932
ECCENTRICITY   = .00031801
INCLINATION    = 42.9980
RA_OF_ASC_NODE = 49.9940
ARG_OF_PERICENTER = 298.7156
MEAN_ANOMALY   = 61.3384

EPHEMERIS_TYPE = 0
CLASSIFICATION_TYPE = U
NORAD_CAT_ID   = 67353
ELEMENT_SET_NO = 999
REV_AT_EPOCH   = 388
BSTAR          = .27219777E-2
MEAN_MOTION_DOT = .162915E-2
MEAN_MOTION_DDOT = 0

CCSDS_OMM_VERS = 2.0
CREATION_DATE  = 
ORIGINATOR     = 

OBJECT_NAME    = STARLINK-36448
OBJECT_ID      = 2026-003W
CENTER_NAME    = EARTH
REF_FRAME      = TEME
TIME_SYSTEM    = UTC
MEAN_ELEMENT_THEORY = SGP/SGP4

EPOCH          = 2026-02-05T10:51:03.148992
MEAN_MOTION    = 15.50649438
ECCENTRICITY   = .00011985
INCLINATION    = 42.9981
RA_OF_ASC_NODE = 49.9884
ARG_OF_PERICENTER = 252.8641
MEAN_ANOMALY   = 107.2088

EPHEMERIS_TYPE = 0
CLASSIFICATION_TYPE = U
NORAD_CAT_ID   = 67354
ELEMENT_SET_NO = 999
REV_AT_EPOCH   = 388
BSTAR          = .19786854E-2
MEAN_MOTION_DOT = .117796E-2
MEAN_MOTION_DDOT = 0

CCSDS_OMM_VERS = 2.0
CREATION_DATE  = 
ORIGINATOR     = 

OBJECT_NAME    = STARLINK-36477
OBJECT_ID      = 2026-003X
CENTER_NAME    = EARTH
REF_FRAME      = TEME
TIME_SYSTEM    = UTC
MEAN_ELEMENT_THEORY = SGP/SGP4

EPOCH          = 2026-02-05T12:24:48.682368
MEAN_MOTION    = 15.50557411
ECCENTRICITY   = .0000652
INCLINATION    = 42.9993
RA_OF_ASC_NODE = 49.6166
ARG_OF_PERICENTER = 295.7640
MEAN_ANOMALY   = 64.3153

EPHEMERIS_TYPE = 0
CLASSIFICATION_TYPE = U
NORAD_CAT_ID   = 67355
ELEMENT_SET_NO = 999
REV_AT_EPOCH   = 389
BSTAR          = .13105E-2
MEAN_MOTION_DOT = .77242E-3
MEAN_MOTION_DDOT = 0

CCSDS_OMM_VERS = 2.0
CREATION_DATE  = 
ORIGINATOR     = 

OBJECT_NAME    = STARLINK-36429
OBJECT_ID      = 2026-003Y
CENTER_NAME    = EARTH
REF_FRAME      = TEME
TIME_SYSTEM    = UTC
MEAN_ELEMENT_THEORY = SGP/SGP4

EPOCH          = 2026-02-05T09:18:47.170080
MEAN_MOTION    = 15.50561038
ECCENTRICITY   = .00012297
INCLINATION    = 42.9994
RA_OF_ASC_NODE = 50.3666
ARG_OF_PERICENTER = 260.3890
MEAN_ANOMALY   = 99.6831

EPHEMERIS_TYPE = 0
CLASSIFICATION_TYPE = U
NORAD_CAT_ID   = 67356
ELEMENT_SET_NO = 999
REV_AT_EPOCH   = 387
BSTAR          = .31467657E-2
MEAN_MOTION_DOT = .188662E-2
MEAN_MOTION_DDOT = 0

CCSDS_OMM_VERS = 2.0
CREATION_DATE  = 
ORIGINATOR     = 

OBJECT_NAME    = STARLINK-36456
OBJECT_ID      = 2026-003Z
CENTER_NAME    = EARTH
REF_FRAME      = TEME
TIME_SYSTEM    = UTC
MEAN_ELEMENT_THEORY = SGP/SGP4

EPOCH          = 2026-02-05T10:50:33.283968
MEAN_MOTION    = 15.50625486
ECCENTRICITY   = .00013581
INCLINATION    = 42.9990
RA_OF_ASC_NODE = 49.9835
ARG_OF_PERICENTER = 251.3541
MEAN_ANOMALY   = 108.7172

EPHEMERIS_TYPE = 0
CLASSIFICATION_TYPE = U
NORAD_CAT_ID   = 67357
ELEMENT_SET_NO = 999
REV_AT_EPOCH   = 388
BSTAR          = .21405668E-2
MEAN_MOTION_DOT = .127512E-2
MEAN_MOTION_DDOT = 0

